#dP2024  6 15  0  0  0.00000000      97 __u+U IGS20 FIT  IAC
## 2318 518400.00000000   900.00000000 60476 0.0000000000000
+  119   C06C07C08C09C10C11C12C13C14C16C19C20C21C22C23C24C25
+        C26C27C28C29C30C32C33C34C35C36C37C39C40C41C42C43C44
+        C45C46E02E03E04E05E07E08E09E10E11E12E13E14E15E18E19
+        E21E25E26E27E24E30E31E33E34E36G01G02G03G04G05G06G07
+        G08G09G10G11G12G13G14G15G16G17G18G19G20G21G22G23G24
+        G25G26G27G28G29G30G31G32J02J03J04R01R02R03R04R05R07
+        R08R09R11R12R13R14R15R16R17R18R19R20R21R22R24R25R26
++         7  8  7  7  8  7  6  7  6  7  6  6  5  6  6  5  6
++         5  5  5  6  6  6  6  6  6  6  6  6  6  5  6  6  6
++         6  5  4  4  4  4  5  4  4  4  4  4  4  4  4  4  4
++         4  4  4  4  4  4  4  4  4  4  4  3  3  3  3  3  3
++         3  3  3  3  3  3  3  3  3  3  3  3  3  3  3  3  3
++         3  3  3  3  3  3  3  3 11 11 11  7  6  6  6  6  7
++         7  6  6  6  7  6  6  6  6  6  7  8  6  7  7  7  8
%c M  cc GPS ccc cccc cccc cccc cccc ccccc ccccc ccccc ccccc
%c cc cc ccc ccc cccc cccc cccc cccc ccccc ccccc ccccc ccccc
%f  1.2500000  1.025000000  0.00000000000  0.000000000000000
%f  0.0000000  0.000000000  0.00000000000  0.000000000000000
%i    0    0    0    0      0      0      0      0         0
%i    0    0    0    0      0      0      0      0         0
/* INFORMATION & ANALYSIS CENTER (IAC)            FINAL DATA
/* S/V CLOCKS ARE ALIGNED TO GNSS TIME                      
/* G:C1WC2W R:C1PC2P E:C1XC5X C:C2IC6I J:C1CC2S             
/* PCV:IGS20_2317 OL/AL:FES2004  NONE     YN ORB:CoN CLK:CoN
*  2024 06 15  1  0  0.00000000
PC06  -2832.924333  36608.383064 -20370.895330    505.520131
PC07 -10179.977999  26718.397175  31049.157525   -637.176599
PC08 -18608.271140  35431.065534 -13630.050610   -213.899267
PC09   3032.634115  39870.137681 -11846.334162    109.033933
PC10  -1294.656689  27774.187418  32035.121203    -29.784417
PC11 -19256.157569 -19907.263888   3416.153995    613.960681
PC12  -6636.643141 -22906.008214 -14455.669789   -256.735331
PC13 -13011.552991  35759.234444 -18302.504654    438.144119
PC14 -18714.887381  -9031.157413  18602.647259    911.468925
PC16  -3859.543522  35391.466891 -22026.532391   -589.656545
PC19  25196.340454   2913.696465 -11655.764965   -914.256831
PC20  11223.818314  12880.514229 -22066.688048   -576.225430
PC21  11088.907568 -15980.188656  20034.949963   -972.069981
PC22  25620.973694  -9297.546709   6071.643751     29.051986
PC23 -17525.860820  13320.118078 -17142.776086   -787.245166
PC24  -3422.020142 -23434.032800 -14751.572627    902.785512
PC25 -14965.672518  -6721.828514 -22580.683628    425.997428
PC26   9285.348077 -26249.594560   1569.197021   -305.880893
PC27  -1578.931289  19467.578312  19905.500377    327.161731
PC28 -15256.419774   6487.295852  22447.981958    251.432773
PC29  22411.210521  12659.715159 -10792.506830    295.112829
PC30  14309.628217  22774.450240   7390.779111   -103.480418
PC32 -11021.011406  16053.357096 -19968.270233   -647.535191
PC33 -25126.153476  -2861.878037  11770.238555   -960.934405
PC34 -15443.434766 -22501.747763  -5883.382348    455.918017
PC35  15309.228228  -6795.728206 -22333.406789    337.776498
PC36  14843.145863   7002.077114  22597.313898    110.543954
PC37  -9942.302000  26033.734894  -1679.396940   -941.533434
PC39  -5880.596051  32323.623152 -26205.819678     -8.733287
PC40 -15114.856229  20321.717341  33659.967047    -75.179955
PC41 -25924.084960   8883.081210  -5152.192607   -965.074769
PC42  -9302.025965 -13639.888315  22531.799130   -446.394551
PC43 -22371.721680 -13430.984362   9901.657208     75.374084
PC44   1069.744010 -19539.496298 -19923.829607    503.855184
PC45  17520.716972 -13008.575507  17385.942213    -94.464525
PC46   3716.498063  23076.878169  15272.268190   -156.865388
PE02 -24606.524252  16263.849795  -2558.540840    135.555757
PE03 -21157.201422   6128.627962 -19763.927051   -120.444914
PE04   1383.690399 -17469.227334  23865.079333   -421.503659
PE05 -28027.809989  -8555.827952  -4131.549007   4757.082774
PE07  18272.029731  18407.295225 -14271.768894   -125.810493
PE08  -2286.953852  17039.597573 -24093.599873   -287.092001
PE09 -18185.214536 -18353.998797  14429.396088   -480.018872
PE10  -4186.219073 -29292.679736    662.963276   -632.791525
PE11 -10249.853142 -25577.585607  10812.579378   2634.029607
PE12   1959.290801 -28313.771942  -8448.625930  -1082.322249
PE13   9960.472075  25884.705448 -10334.692738    -22.261651
PE14  15033.944300 -14325.038510 -22544.532124     73.574849
PE15  -2269.010554  28105.527386   8992.953112   -108.930968
PE18   3720.177966  19067.063596  18643.912611    226.573618
PE19  22555.367040  -4440.642063  18662.139121    119.181173
PE21  23025.604335  -1327.473719  18556.912510   -600.045847
PE25 -22828.021968    957.448790 -18812.095105      5.745469
PE26  16351.734433   7932.931166 -23366.154242    484.054411
PE27   7915.785137  15020.722369  24249.852212   -375.405719
PE24  -7676.277222 -15240.797864 -24197.507545   -819.376991
PE30 -11803.759113  22299.877321  15475.741066   -405.827680
PE31  11672.155679 -22302.503646 -15566.490697    -26.430625
PE33  13171.646435 -13284.464383 -22941.966522     12.797949
PE34 -12946.483218  13842.025949  22728.071721   -117.052762
PE36 -16146.972010  -8610.713536  23263.299102   -241.344419
PG01  -2376.577177 -16860.823070 -20678.969620    258.967796
PG02 -15297.123304   1789.419966  22131.152961   -417.574037
PG03 -22406.378314  11646.146919   7870.632788    413.821525
PG04 -22641.619330   1119.088740 -13933.852764    383.347040
PG05  18234.509618   1363.723211 -19475.007708   -176.350084
PG06   5036.770888  25967.593140  -1542.543954    218.089585
PG07  -7136.586036  20404.434348 -14595.419208    -92.894469
PG08 -25871.162342  -5780.214765   3767.758501    230.062364
PG09 -12882.023316  10879.462174 -20615.628041    235.051981
PG10   4031.294223 -18987.932506  18183.556352    -43.076289
PG11  12018.796250  19175.662788 -13926.611479   -685.591604
PG12  23170.397010  -8578.183049   9397.746746   -514.158875
PG13  22474.203724  14198.134754  -2588.785258    657.968927
PG14  -7927.388775  20205.965702  15199.309321    425.602161
PG15  26232.343383   2923.014588   3267.460841    170.232723
PG16 -16283.828864  -6131.926480 -20518.018455   -264.077045
PG17   1145.600471  16441.256946  21214.684643    694.420005
PG18   6894.089045 -20950.519146 -14636.233177   -625.002418
PG19  11209.869113  17944.862343  16123.182368    496.535134
PG20  11672.092403   9937.671998 -21630.241790    373.830535
PG21 -16438.855979  -4987.912999  20930.667330    115.404639
PG22   -777.392521  17709.364474  20285.331522    -27.380626
PG23  14456.163233 -20401.383841   8676.803216    250.496813
PG24  16080.226760    585.956385  20759.325367   -477.741258
PG25  20402.761309 -16742.611599    819.774724    497.347389
PG26  -5590.079707 -15930.451218 -20582.797651    136.839823
PG27 -22302.607096 -13242.111656  -6962.609801    -28.232820
PG28  -4612.445189 -26138.619229    978.732716   -289.179506
PG29  16293.720625  -7353.605289 -19733.905361   -594.183127
PG30    191.774680  25792.667607  -5560.738831   -374.133417
PG31 -10513.364467 -22049.694755 -10144.595592   -227.390552
PG32  -4784.496070 -16763.411096  20307.470824   -616.198021
PJ02 -30886.525977  28126.801822  10703.029049     -0.336721
PJ03 -25177.442612  25949.548635  26758.032441      0.598012
PJ04 -32079.843031  21299.387997 -11974.504312     50.355459
PR01  25412.004556  -1861.380056   1391.420396     88.420098
PR02  17168.280008  -8080.983552  17059.606163    -23.294734
PR03   -996.213776 -10817.639752  23127.742693    102.093050
PR04 -17953.900974  -7484.440144  16537.928434    241.123205
PR05 -25494.719338   -341.890948   1064.402469    133.100640
PR07   1737.786993  10752.587967 -23021.673362     84.586020
PR08  18224.405738   7279.897320 -16216.410324     -4.977685
PR09 -13793.026780  20556.693693  -5945.089467    192.261518
PR11   4778.876928  12761.913299  21571.997539     21.394844
PR12  14415.719518  -6301.844776  20103.980825     41.322089
PR13  14704.901801 -19030.484145   8493.153236    -48.358450
PR14   5793.985419 -22250.748007 -11054.423510     26.579420
PR15  -5810.969778 -11468.492055 -22009.037426     78.807637
PR16 -14192.680794   6204.755152 -20239.856495     26.501158
PR17  -7009.657401 -21809.644162 -11172.395535     95.912488
PR18 -14496.667551 -20365.460828   5204.921659    147.055028
PR19 -14757.912502 -10493.389545  17955.513452   -280.341994
PR20  -5953.565659  10246.722310  22584.001439   -114.514760
PR21   6710.821511  21809.027850  11425.556194   -109.331993
PR22  14345.985338  20125.215130  -6271.002267    102.608225
PR24   5522.499242 -11232.846919 -22212.600461    -59.871923
PR25   6222.166261  22253.735238  10830.288819    -55.703084
PR26  17234.846439   7632.370784 -17178.318594     -6.294462
EOF
